{
"type": "FeatureCollection",
"name": "Ahom-Monuments",
"crs": { "type": "name", "properties": { "name": "urn:ogc:def:crs:OGC:1.3:CRS84" } },
"features": [
{ "type": "Feature", "properties": { "id": 1, "Name": "Gola Ghar" }, "geometry": { "type": "Point", "coordinates": [ 94.622239130586067, 26.964332990946314 ] } },
{ "type": "Feature", "properties": { "id": 2, "Name": "Talatal Ghar" }, "geometry": { "type": "Point", "coordinates": [ 94.624579945405088, 26.965943028356346 ] } },
{ "type": "Feature", "properties": { "id": 3, "Name": "Ranghar" }, "geometry": { "type": "Point", "coordinates": [ 94.619131267238885, 26.967126027309977 ] } },
{ "type": "Feature", "properties": { "id": 4, "Name": "Kareng Ghar" }, "geometry": { "type": "Point", "coordinates": [ 94.745088022817214, 26.936317793323074 ] } }
]
}
