{
"type": "FeatureCollection",
"name": "Dol",
"crs": { "type": "name", "properties": { "name": "urn:ogc:def:crs:OGC:1.3:CRS84" } },
"features": [
{ "type": "Feature", "properties": { "id": 1, "Name": "Shiva Dol" }, "geometry": { "type": "MultiPolygon", "coordinates": [ [ [ [ 94.633301684997022, 26.988185933737025 ], [ 94.632943790479572, 26.988190765855801 ], [ 94.633003439565826, 26.98905087969101 ], [ 94.633345066150653, 26.989026719279796 ], [ 94.633301684997022, 26.988185933737025 ] ] ] ] } },
{ "type": "Feature", "properties": { "id": 2, "Name": "Joy Dol" }, "geometry": { "type": "MultiPolygon", "coordinates": [ [ [ [ 94.623571746175884, 26.955767827973453 ], [ 94.623571746175884, 26.955767827973453 ], [ 94.625225658868843, 26.955813671332752 ], [ 94.625244607132061, 26.955306980535717 ], [ 94.623582573754874, 26.955253898510836 ], [ 94.623571746175884, 26.955767827973453 ] ] ] ] } },
{ "type": "Feature", "properties": { "id": 3, "Name": "Thowra Dol" }, "geometry": { "type": "MultiPolygon", "coordinates": [ [ [ [ 94.698515368386666, 27.083704161275634 ], [ 94.698743172934229, 27.083558167070326 ], [ 94.698159905252155, 27.082883063875446 ], [ 94.697942005250169, 27.083024159799564 ], [ 94.698515368386666, 27.083704161275634 ] ] ] ] } }
]
}
