{
    "type": "FeatureCollection",
    "features": [
        {
            "type": "Feature",
            "geometry": {
                "bbox": [
                    94.62935920466232,
                    26.988725895308843,
                    94.63811580311096,
                    26.99551016644727
                ],
                "type": "Polygon",
                "coordinates": [
                    [
                        [
                            94.63798675850224,
                            26.994409598208545
                        ],
                        [
                            94.63811580311096,
                            26.994327465818614
                        ],
                        [
                            94.63700970646478,
                            26.988725895308843
                        ],
                        [
                            94.62935920466232,
                            26.98994150908764
                        ],
                        [
                            94.63044686636437,
                            26.99551016644727
                        ],
                        [
                            94.63798675850224,
                            26.994409598208545
                        ],
                        [
                            94.63798675850224,
                            26.994409598208545
                        ]
                    ]
                ]
            },
            "properties": {
                "id": 1,
                "Name": "Borpukhuri"
            }
        },
        {
            "type": "Feature",
            "geometry": {
                "bbox": [
                    94.61918311551774,
                    26.949466011749436,
                    94.62716544631408,
                    26.955316018812393
                ],
                "type": "Polygon",
                "coordinates": [
                    [
                        [
                            94.61918311551774,
                            26.95487234914537
                        ],
                        [
                            94.6267414425997,
                            26.955316018812393
                        ],
                        [
                            94.62716544631408,
                            26.94982753784411
                        ],
                        [
                            94.61942276979104,
                            26.949466011749436
                        ],
                        [
                            94.61918311551774,
                            26.95487234914537
                        ]
                    ]
                ]
            },
            "properties": {
                "id": 2,
                "Name": "Joysagar Pukhuri"
            }
        },
        {
            "type": "Feature",
            "geometry": {
                "bbox": [
                    94.57997198941192,
                    26.946754529072074,
                    94.58767779604672,
                    26.952604676896026
                ],
                "type": "Polygon",
                "coordinates": [
                    [
                        [
                            94.58050660279086,
                            26.952604676896026
                        ],
                        [
                            94.58767779604672,
                            26.952292457577222
                        ],
                        [
                            94.58741970682927,
                            26.946754529072074
                        ],
                        [
                            94.57997198941192,
                            26.947132497236975
                        ],
                        [
                            94.58050660279086,
                            26.952604676896026
                        ]
                    ]
                ]
            },
            "properties": {
                "id": 3,
                "Name": "Rudrasagar Pukhuri"
            }
        },
        {
            "type": "Feature",
            "geometry": {
                "bbox": [
                    94.5327969674538,
                    26.940904077578704,
                    94.54088990791476,
                    26.947033896968332
                ],
                "type": "Polygon",
                "coordinates": [
                    [
                        [
                            94.5327969674538,
                            26.946458727015393
                        ],
                        [
                            94.54039216442399,
                            26.947033896968332
                        ],
                        [
                            94.54088990791476,
                            26.941561446820884
                        ],
                        [
                            94.53338688566507,
                            26.940904077578704
                        ],
                        [
                            94.5327969674538,
                            26.946458727015393
                        ]
                    ]
                ]
            },
            "properties": {
                "id": 4,
                "Name": "Gourisagar Pukhuri"
            }
        }
    ],
    "fileName": "Sibsagar_Tanks"
}